ORBCOMM FM33 [-]        
1 25983U 99065D   23274.72565715  .00001799  00000+0  65147-3 0  9993
2 25983  45.0292  79.6545 0009381 164.3101 210.4652 14.36770163246161
ORBCOMM FM36 [-]        
1 25984U 99065E   23275.05973152  .00001533  00000+0  58645-3 0  9990
2 25984  45.0396 159.7619 0004186  37.8837 322.2305 14.34656019245287
ORBCOMM FM35 [+]        
1 25985U 99065F   23274.76901958  .00001438  00000+0  55643-3 0  9992
2 25985  45.0395 163.1866 0002080 146.6313 213.4666 14.34362825245054
ORBCOMM FM34 [-]        
1 25986U 99065G   23274.80229118  .00001602  00000+0  61499-3 0  9998
2 25986  45.0390 163.4989 0003510  80.3770 279.7474 14.34309283245173
ORBCOMM FM38 [-]        
1 33060U 08031A   23274.64183828  .00003457  00000+0  52507-3 0  9992
2 33060  48.4422  38.5596 0006319 246.0605 113.9646 14.76087591822332
ORBCOMM FM41 [-]        
1 33061U 08031B   23274.65175775  .00003463  00000+0  52873-3 0  9999
2 33061  48.4454  44.6397 0005415 234.0566 139.4572 14.75853356821849
ORBCOMM FM29 [-]        
1 33062U 08031C   23275.12901427  .00003610  00000+0  55129-3 0  9995
2 33062  48.4407  50.3587 0007288 233.0043 297.1269 14.75733725822216
ORBCOMM FM39 [-]        
1 33063U 08031D   23274.79052487  .00003210  00000+0  50316-3 0  9990
2 33063  48.4410  70.9490 0008114 209.1508 150.8953 14.74894596821498
